[{"OBJECT_NAME":"STARLINK-5771","OBJECT_ID":"2023-042AP","EPOCH":"2026-03-09T07:43:44.707008","MEAN_MOTION":15.03041905,"ECCENTRICITY":0.00018472,"INCLINATION":43.0045,"RA_OF_ASC_NODE":45.2113,"ARG_OF_PERICENTER":257.6913,"MEAN_ANOMALY":102.3723,"EPHEMERIS_TYPE":0,"CLASSIFICATION_TYPE":"U","NORAD_CAT_ID":56023,"ELEMENT_SET_NO":999,"REV_AT_EPOCH":16300,"BSTAR":0.0045779413,"MEAN_MOTION_DOT":0.00063039,"MEAN_MOTION_DDOT":0},{"OBJECT_NAME":"OBJECT E","OBJECT_ID":"2024-018E","EPOCH":"2026-02-28T11:49:38.272512","MEAN_MOTION":14.54274509,"ECCENTRICITY":0.03649823,"INCLINATION":58.9635,"RA_OF_ASC_NODE":229.5952,"ARG_OF_PERICENTER":296.8367,"MEAN_ANOMALY":59.5785,"EPHEMERIS_TYPE":0,"CLASSIFICATION_TYPE":"U","NORAD_CAT_ID":65789,"ELEMENT_SET_NO":999,"REV_AT_EPOCH":9314,"BSTAR":0.0004744631,"MEAN_MOTION_DOT":4.754e-5,"MEAN_MOTION_DDOT":0}]
